[{"OBJECT_NAME":"OBJECT K","OBJECT_ID":"2024-205K","EPOCH":"2026-03-09T22:22:01.331040","MEAN_MOTION":15.27932792,"ECCENTRICITY":0.00106729,"INCLINATION":97.417,"RA_OF_ASC_NODE":146.2172,"ARG_OF_PERICENTER":37.4736,"MEAN_ANOMALY":322.7246,"EPHEMERIS_TYPE":0,"CLASSIFICATION_TYPE":"U","NORAD_CAT_ID":61903,"ELEMENT_SET_NO":999,"REV_AT_EPOCH":7347,"BSTAR":0.00067315144,"MEAN_MOTION_DOT":0.00018331,"MEAN_MOTION_DDOT":0},{"OBJECT_NAME":"STARLINK-35531","OBJECT_ID":"2025-236AC","EPOCH":"2026-03-09T11:30:39.663936","MEAN_MOTION":15.30192173,"ECCENTRICITY":0.00014919,"INCLINATION":53.1595,"RA_OF_ASC_NODE":104.76,"ARG_OF_PERICENTER":76.8145,"MEAN_ANOMALY":283.3022,"EPHEMERIS_TYPE":0,"CLASSIFICATION_TYPE":"U","NORAD_CAT_ID":66112,"ELEMENT_SET_NO":999,"REV_AT_EPOCH":2291,"BSTAR":0.00093900161,"MEAN_MOTION_DOT":0.00027548,"MEAN_MOTION_DDOT":0}]
